INMARSAT 4-F2 (SOUTHPA*)
1 28899U 05044A   26129.55472191 -.00000250  00000+0  00000+0 0  9999
2 28899   5.0456  43.7429 0002925   9.4245 157.4077  1.00272357 75133
GSAT-8 (GAGAN/PRN 127)  
1 37605U 11022A   26129.86796058  .00000094  00000+0  00000+0 0  9997
2 37605   2.0317  82.2696 0003702 227.1069 285.8591  1.00271769 52837
LUCH 5A (SDCM/PRN 140)  
1 37951U 11074B   26129.59965435 -.00000036  00000+0  00000+0 0  9992
2 37951   8.6564  74.3639 0002534 323.6143 212.3391  1.00274596 52668
SES-5 (EGNOS/PRN 136)   
1 38652U 12036A   26129.54285557  .00000041  00000+0  00000+0 0  9990
2 38652   0.0578 301.4819 0002360  97.0525  29.2373  1.00266509 44060
GSAT-10 (GAGAN/PRN 128) 
1 38779U 12051B   26129.72759228 -.00000156  00000+0  00000+0 0  9996
2 38779   0.0013  67.5555 0007555  17.6623 127.1913  1.00271856 49715
LUCH 5B (SDCM/PRN 125)  
1 38977U 12061A   26129.03964394 -.00000127  00000+0  00000+0 0  9991
2 38977  10.4006  50.2627 0000860 186.2792 348.3274  1.00272119 49218
ASTRA 5B (EGNOS/PRN 123)
1 39617U 14011B   26129.54658225  .00000145  00000+0  00000+0 0  9998
2 39617   0.0491 331.5266 0002607  60.3869  55.7466  1.00270280 44286
LUCH 5V (SDCM/PRN 141)  
1 39727U 14023A   26129.82802867 -.00000256  00000+0  00000+0 0  9991
2 39727   5.0395  70.1208 0002958 358.7526 191.5513  1.00268052 43972
GSAT-15 (GAGAN/PRN 139) 
1 41028U 15065A   26129.69608529 -.00000250  00000+0  00000+0 0  9993
2 41028   0.0383 252.4184 0003622 163.4821 155.7172  1.00273347 38416
EUTELSAT 117 WEST B (W*)
1 41589U 16038B   26129.62387513 -.00000003  00000+0  00000+0 0  9992
2 41589   0.0115 118.1472 0000180 174.7192  42.1615  1.00271507 36270
SES-15 (WAAS/PRN 133)   
1 42709U 17026A   26129.57405786  .00000068  00000+0  00000+0 0  9992
2 42709   0.0211 328.2581 0000648  78.1123 258.5448  1.00270860  7048
QZS-2 (QZSS/PRN 194)    
1 42738U 17028A   26125.63528612 -.00000201  00000+0  00000+0 0  9993
2 42738  39.4938 243.7793 0763138 268.8214  78.8072  1.00295347  7196
QZS-3 (QZSS/PRN 199)    
1 42917U 17048A   26129.78104230 -.00000339  00000+0  00000+0 0  9992
2 42917   0.0623 141.6216 0002135 267.7139 226.4577  1.00275494 31877
QZS-4 (QZSS/PRN 195)    
1 42965U 17062A   26129.47303921 -.00000301  00000+0  00000+0 0  9994
2 42965  40.1311 343.9776 0745701 271.0760 282.0851  1.00262784 31419
BEIDOU-3 G1 (PRN 130)   
1 43683U 18085A   26129.78754234 -.00000097  00000+0  00000+0 0  9991
2 43683   2.9768  98.3855 0007658 337.7753 234.9310  1.00273289 27673
EUTELSAT 5 WEST B (EGN*)
1 44624U 19067A   26129.32709394 -.00000034  00000+0  00000+0 0  9996
2 44624   0.0669 343.8775 0003222  63.6182 292.4201  1.00271350 24044
BEIDOU-3 G2 (PRN 144)   
1 45344U 20017A   26129.77986622 -.00000130  00000+0  00000+0 0  9990
2 45344   2.7872  46.7304 0002956   6.7743 174.8735  1.00271085 22879
BEIDOU-3 G3 (PRN 143)   
1 45807U 20040A   26129.80044802 -.00000344  00000+0  00000+0 0  9996
2 45807   2.3531  67.3342 0003546 332.6006 226.3120  1.00277704 21684
GALAXY 30 (WAAS/PRN 135)
1 46114U 20056C   26129.62734788  .00000045  00000+0  00000+0 0  9991
2 46114   0.0184 283.1666 0002625 140.9467 264.1815  1.00271465 20903
QZS-1R (QZSS/PRN 196)   
1 49336U 21096A   26129.73100203 -.00000203  00000+0  00000+0 0  9993
2 49336  37.3843  80.1514 0752269 271.0607 275.0758  1.00269052 16622
QZS-6 (QZSS/PRN 200)    
1 62876U 25023A   26129.78567582 -.00000224  00000+0  00000+0 0  9996
2 62876   0.0629  79.7376 0002736 337.1712 184.0499  1.00270530  4578
